[{"OBJECT_NAME":"STARLINK-6131","OBJECT_ID":"2023-090G","EPOCH":"2026-03-09T19:52:52.312800","MEAN_MOTION":15.02532253,"ECCENTRICITY":0.00012942,"INCLINATION":43.0032,"RA_OF_ASC_NODE":273.9503,"ARG_OF_PERICENTER":267.6547,"MEAN_ANOMALY":92.4147,"EPHEMERIS_TYPE":0,"CLASSIFICATION_TYPE":"U","NORAD_CAT_ID":57107,"ELEMENT_SET_NO":999,"REV_AT_EPOCH":15043,"BSTAR":4.7691262e-5,"MEAN_MOTION_DOT":4.41e-6,"MEAN_MOTION_DDOT":0},{"OBJECT_NAME":"LEMUR-2-ALISIA","OBJECT_ID":"2025-009DB","EPOCH":"2026-03-09T17:42:17.671392","MEAN_MOTION":15.01147598,"ECCENTRICITY":0.00065821,"INCLINATION":97.7037,"RA_OF_ASC_NODE":151.6973,"ARG_OF_PERICENTER":159.9869,"MEAN_ANOMALY":200.1615,"EPHEMERIS_TYPE":0,"CLASSIFICATION_TYPE":"U","NORAD_CAT_ID":62706,"ELEMENT_SET_NO":999,"REV_AT_EPOCH":8523,"BSTAR":0.00072005311,"MEAN_MOTION_DOT":9.177e-5,"MEAN_MOTION_DDOT":0}]
