STARLINK-6131           
1 57107U 23090G   26068.82838324  .00000441  00000+0  47691-4 0  9993
2 57107  43.0032 273.9503 0001294 267.6547  92.4147 15.02532253150434
LEMUR-2-ALISIA          
1 62706U 25009DB  26068.73770453  .00009177  00000+0  72005-3 0  9995
2 62706  97.7037 151.6973 0006582 159.9869 200.1615 15.01147598 85230
